{
  "norad_id": 60918,
  "name": "STARLINK-32317",
  "history": [
    {
      "epoch": "2026-03-28T17:07:09.106176Z",
      "apogee_km": 476.1512964871181,
      "perigee_km": 474.3358359751237,
      "latitude_deg": -1.5054073705782319e-05,
      "longitude_deg": 112.83885012686854,
      "height_km": 475.7849105531494,
      "semi_major_axis_km": 6853.380566231121,
      "eccentricity": 0.00013245,
      "inclination_deg": 53.1609,
      "raan_deg": 195.7566,
      "arg_perigee_deg": 66.8473,
      "mean_anomaly_deg": 293.2667,
      "mean_motion_rev_day": 15.30190456
    },
    {
      "epoch": "2026-03-30T13:00:38.810304Z",
      "apogee_km": 476.1904802031286,
      "perigee_km": 474.33773174813905,
      "latitude_deg": 2.6186922546797606e-07,
      "longitude_deg": 164.17003203713523,
      "height_km": 476.03004762466423,
      "semi_major_axis_km": 6853.401105975633,
      "eccentricity": 0.00013517,
      "inclination_deg": 53.1606,
      "raan_deg": 187.2641,
      "arg_perigee_deg": 81.8017,
      "mean_anomaly_deg": 278.3137,
      "mean_motion_rev_day": 15.30183577
    },
    {
      "epoch": "2026-03-30T16:08:45.156768Z",
      "apogee_km": 476.14489295640396,
      "perigee_km": 474.37493466944306,
      "latitude_deg": 5.811906301013954e-05,
      "longitude_deg": 116.40687786692479,
      "height_km": 476.0004147750851,
      "semi_major_axis_km": 6853.396913812923,
      "eccentricity": 0.00012913,
      "inclination_deg": 53.1598,
      "raan_deg": 186.6561,
      "arg_perigee_deg": 79.7458,
      "mean_anomaly_deg": 280.3689,
      "mean_motion_rev_day": 15.30184981
    }
  ]
}